{
  "type": "FeatureCollection",
  "features": [
    {
      "type": "Feature",
      "properties": {
        "norad_id": 32376,
        "name": "COSMO-SKYMED 2",
        "group": "resource",
        "lat": 28.946040951809312,
        "lon": 5.675003539474458,
        "alt_km": 620.8549922298607,
        "timestamp": "2025-12-26T03:50:11.744314+00:00",
        "meta_object_name": "COSMO-SKYMED 2",
        "meta_object_id": "2007-059A",
        "meta_epoch": "2025-12-25T20:40:41.680128",
        "meta_mean_motion": 14.82158571,
        "meta_eccentricity": 0.0001307,
        "meta_inclination": 97.8806,
        "meta_ra_of_asc_node": 180.9878,
        "meta_arg_of_pericenter": 82.8452,
        "meta_mean_anomaly": 277.291,
        "meta_ephemeris_type": 0,
        "meta_classification_type": "U",
        "meta_norad_cat_id": 32376,
        "meta_element_set_no": 999,
        "meta_rev_at_epoch": 97632,
        "meta_bstar": 7.8252e-05,
        "meta_mean_motion_dot": 5.71e-06,
        "meta_mean_motion_ddot": 0,
        "tle_line1": "1 32376U 07059A   25359.86159352  .00000571  00000+0  78252-4 0  9995",
        "tle_line2": "2 32376  97.8806 180.9878 0001307  82.8452 277.2910 14.82158571976329"
      },
      "geometry": {
        "type": "Point",
        "coordinates": [
          5.675003539474458,
          28.946040951809312
        ]
      }
    },
    {
      "type": "Feature",
      "properties": {
        "norad_id": 32382,
        "name": "RADARSAT-2",
        "group": "resource",
        "lat": 74.14273506633364,
        "lon": -143.33944404815838,
        "alt_km": 783.9103885854956,
        "timestamp": "2025-12-26T03:50:11.744346+00:00",
        "meta_object_name": "RADARSAT-2",
        "meta_object_id": "2007-061A",
        "meta_epoch": "2025-12-25T20:38:16.427904",
        "meta_mean_motion": 14.29984539,
        "meta_eccentricity": 0.0001133,
        "meta_inclination": 98.5797,
        "meta_ra_of_asc_node": 4.2588,
        "meta_arg_of_pericenter": 85.6737,
        "meta_mean_anomaly": 274.4575,
        "meta_ephemeris_type": 0,
        "meta_classification_type": "U",
        "meta_norad_cat_id": 32382,
        "meta_element_set_no": 999,
        "meta_rev_at_epoch": 94118,
        "meta_bstar": -1.8021e-05,
        "meta_mean_motion_dot": -9e-07,
        "meta_mean_motion_ddot": 0,
        "tle_line1": "1 32382U 07061A   25359.85991236 -.00000090  00000+0 -18021-4 0  9995",
        "tle_line2": "2 32382  98.5797   4.2588 0001133  85.6737 274.4575 14.29984539941187"
      },
      "geometry": {
        "type": "Point",
        "coordinates": [
          -143.33944404815838,
          74.14273506633364
        ]
      }
    },
    {
      "type": "Feature",
      "properties": {
        "norad_id": 32783,
        "name": "CARTOSAT-2A",
        "group": "resource",
        "lat": 43.86037390847122,
        "lon": -122.87708116836689,
        "alt_km": 636.6027529356907,
        "timestamp": "2025-12-26T03:50:11.744361+00:00",
        "meta_object_name": "CARTOSAT-2A",
        "meta_object_id": "2008-021A",
        "meta_epoch": "2025-12-25T20:43:49.568160",
        "meta_mean_motion": 14.78954355,
        "meta_eccentricity": 0.0010934,
        "meta_inclination": 97.7908,
        "meta_ra_of_asc_node": 49.2758,
        "meta_arg_of_pericenter": 321.0266,
        "meta_mean_anomaly": 39.0157,
        "meta_ephemeris_type": 0,
        "meta_classification_type": "U",
        "meta_norad_cat_id": 32783,
        "meta_element_set_no": 999,
        "meta_rev_at_epoch": 95318,
        "meta_bstar": 9.2912e-05,
        "meta_mean_motion_dot": 6.36e-06,
        "meta_mean_motion_ddot": 0,
        "tle_line1": "1 32783U 08021A   25359.86376815  .00000636  00000+0  92912-4 0  9993",
        "tle_line2": "2 32783  97.7908  49.2758 0010934 321.0266  39.0157 14.78954355953189"
      },
      "geometry": {
        "type": "Point",
        "coordinates": [
          -122.87708116836689,
          43.86037390847122
        ]
      }
    },
    {
      "type": "Feature",
      "properties": {
        "norad_id": 33320,
        "name": "HUANJING 1A (HJ-1A)",
        "group": "resource",
        "lat": -35.87915665411496,
        "lon": 162.315181183926,
        "alt_km": 634.3398255558805,
        "timestamp": "2025-12-26T03:50:11.744373+00:00",
        "meta_object_name": "HUANJING 1A (HJ-1A)",
        "meta_object_id": "2008-041A",
        "meta_epoch": "2025-12-25T22:00:27.835776",
        "meta_mean_motion": 14.83433246,
        "meta_eccentricity": 0.0019133,
        "meta_inclination": 97.6551,
        "meta_ra_of_asc_node": 347.6653,
        "meta_arg_of_pericenter": 352.1825,
        "meta_mean_anomaly": 7.9088,
        "meta_ephemeris_type": 0,
        "meta_classification_type": "U",
        "meta_norad_cat_id": 33320,
        "meta_element_set_no": 999,
        "meta_rev_at_epoch": 93271,
        "meta_bstar": 0.00018043,
        "meta_mean_motion_dot": 1.435e-05,
        "meta_mean_motion_ddot": 0,
        "tle_line1": "1 33320U 08041A   25359.91698884  .00001435  00000+0  18043-3 0  9992",
        "tle_line2": "2 33320  97.6551 347.6653 0019133 352.1825   7.9088 14.83433246932715"
      },
      "geometry": {
        "type": "Point",
        "coordinates": [
          162.315181183926,
          -35.87915665411496
        ]
      }
    },
    {
      "type": "Feature",
      "properties": {
        "norad_id": 33321,
        "name": "HUANJING 1B (HJ-1B)",
        "group": "resource",
        "lat": 49.04141647515943,
        "lon": -17.33711986397238,
        "alt_km": 590.6238027648515,
        "timestamp": "2025-12-26T03:50:11.744385+00:00",
        "meta_object_name": "HUANJING 1B (HJ-1B)",
        "meta_object_id": "2008-041B",
        "meta_epoch": "2025-12-25T21:08:13.858080",
        "meta_mean_motion": 14.82856603,
        "meta_eccentricity": 0.0037663,
        "meta_inclination": 97.6409,
        "meta_ra_of_asc_node": 351.293,
        "meta_arg_of_pericenter": 34.1292,
        "meta_mean_anomaly": 326.2333,
        "meta_ephemeris_type": 0,
        "meta_classification_type": "U",
        "meta_norad_cat_id": 33321,
        "meta_element_set_no": 999,
        "meta_rev_at_epoch": 93272,
        "meta_bstar": 0.0002244,
        "meta_mean_motion_dot": 1.788e-05,
        "meta_mean_motion_ddot": 0,
        "tle_line1": "1 33321U 08041B   25359.88071595  .00001788  00000+0  22440-3 0  9990",
        "tle_line2": "2 33321  97.6409 351.2930 0037663  34.1292 326.2333 14.82856603932726"
      },
      "geometry": {
        "type": "Point",
        "coordinates": [
          -17.33711986397238,
          49.04141647515943
        ]
      }
    },
    {
      "type": "Feature",
      "properties": {
        "norad_id": 33331,
        "name": "GEOEYE 1",
        "group": "resource",
        "lat": -61.57639661776128,
        "lon": -124.03190044935447,
        "alt_km": 683.084987808742,
        "timestamp": "2025-12-26T03:50:11.744396+00:00",
        "meta_object_name": "GEOEYE 1",
        "meta_object_id": "2008-042A",
        "meta_epoch": "2025-12-25T18:32:04.445088",
        "meta_mean_motion": 14.64717474,
        "meta_eccentricity": 0.0003029,
        "meta_inclination": 98.1237,
        "meta_ra_of_asc_node": 70.8879,
        "meta_arg_of_pericenter": 228.5495,
        "meta_mean_anomaly": 131.5447,
        "meta_ephemeris_type": 0,
        "meta_classification_type": "U",
        "meta_norad_cat_id": 33331,
        "meta_element_set_no": 999,
        "meta_rev_at_epoch": 92476,
        "meta_bstar": 0.000127,
        "meta_mean_motion_dot": 6.29e-06,
        "meta_mean_motion_ddot": 0,
        "tle_line1": "1 33331U 08042A   25359.77227367  .00000629  00000+0  12700-3 0  9991",
        "tle_line2": "2 33331  98.1237  70.8879 0003029 228.5495 131.5447 14.64717474924761"
      },
      "geometry": {
        "type": "Point",
        "coordinates": [
          -124.03190044935447,
          -61.57639661776128
        ]
      }
    },
    {
      "type": "Feature",
      "properties": {
        "norad_id": 33396,
        "name": "THEOS",
        "group": "resource",
        "lat": 71.30284839256285,
        "lon": -95.63867590844795,
        "alt_km": 817.2722028325297,
        "timestamp": "2025-12-26T03:50:11.744408+00:00",
        "meta_object_name": "THEOS",
        "meta_object_id": "2008-049A",
        "meta_epoch": "2025-12-25T20:34:20.675136",
        "meta_mean_motion": 14.20099581,
        "meta_eccentricity": 0.0001197,
        "meta_inclination": 98.5844,
        "meta_ra_of_asc_node": 57.5585,
        "meta_arg_of_pericenter": 93.5052,
        "meta_mean_anomaly": 266.6262,
        "meta_ephemeris_type": 0,
        "meta_classification_type": "U",
        "meta_norad_cat_id": 33396,
        "meta_element_set_no": 999,
        "meta_rev_at_epoch": 89336,
        "meta_bstar": 0.00012025,
        "meta_mean_motion_dot": 2.14e-06,
        "meta_mean_motion_ddot": 0,
        "tle_line1": "1 33396U 08049A   25359.85718374  .00000214  00000+0  12025-3 0  9991",
        "tle_line2": "2 33396  98.5844  57.5585 0001197  93.5052 266.6262 14.20099581893369"
      },
      "geometry": {
        "type": "Point",
        "coordinates": [
          -95.63867590844795,
          71.30284839256285
        ]
      }
    }
  ]
}